[
    {
        "OBJECT_NAME": "GSAT0101 (GALILEO-PFM)",
        "OBJECT_ID": "2011-060A",
        "EPOCH": "2025-03-01T01:27:32.624064",
        "MEAN_MOTION": 1.70475553,
        "ECCENTRICITY": 0.0004142,
        "INCLINATION": 57.114,
        "RA_OF_ASC_NODE": 354.5841,
        "ARG_OF_PERICENTER": 343.0067,
        "MEAN_ANOMALY": 16.984,
        "EPHEMERIS_TYPE": 0,
        "CLASSIFICATION_TYPE": "U",
        "NORAD_CAT_ID": 37846,
        "ELEMENT_SET_NO": 999,
        "REV_AT_EPOCH": 8305,
        "BSTAR": 0,
        "MEAN_MOTION_DOT": -8.4e-07,
        "MEAN_MOTION_DDOT": 0
    },
    {
        "OBJECT_NAME": "GSAT0102 (GALILEO-FM2)",
        "OBJECT_ID": "2011-060B",
        "EPOCH": "2025-03-03T12:38:24.332064",
        "MEAN_MOTION": 1.70475674,
        "ECCENTRICITY": 0.0005351,
        "INCLINATION": 57.1119,
        "RA_OF_ASC_NODE": 354.5177,
        "ARG_OF_PERICENTER": 337.7414,
        "MEAN_ANOMALY": 140.9033,
        "EPHEMERIS_TYPE": 0,
        "CLASSIFICATION_TYPE": "U",
        "NORAD_CAT_ID": 37847,
        "ELEMENT_SET_NO": 999,
        "REV_AT_EPOCH": 8310,
        "BSTAR": 0,
        "MEAN_MOTION_DOT": -9.2e-07,
        "MEAN_MOTION_DDOT": 0
    },
    {
        "OBJECT_NAME": "GSAT0103 (GALILEO-FM3)",
        "OBJECT_ID": "2012-055A",
        "EPOCH": "2025-03-03T10:43:30.235008",
        "MEAN_MOTION": 1.70473407,
        "ECCENTRICITY": 0.0005615,
        "INCLINATION": 55.5298,
        "RA_OF_ASC_NODE": 114.4762,
        "ARG_OF_PERICENTER": 273.8533,
        "MEAN_ANOMALY": 86.1656,
        "EPHEMERIS_TYPE": 0,
        "CLASSIFICATION_TYPE": "U",
        "NORAD_CAT_ID": 38857,
        "ELEMENT_SET_NO": 999,
        "REV_AT_EPOCH": 7712,
        "BSTAR": 0,
        "MEAN_MOTION_DOT": 1.7e-07,
        "MEAN_MOTION_DDOT": 0
    },
    {
        "OBJECT_NAME": "GSAT0104 (GALILEO-FM4)",
        "OBJECT_ID": "2012-055B",
        "EPOCH": "2025-02-11T13:07:31.681344",
        "MEAN_MOTION": 1.64591971,
        "ECCENTRICITY": 7.61e-05,
        "INCLINATION": 55.5308,
        "RA_OF_ASC_NODE": 115.6831,
        "ARG_OF_PERICENTER": 269.5264,
        "MEAN_ANOMALY": 90.5214,
        "EPHEMERIS_TYPE": 0,
        "CLASSIFICATION_TYPE": "U",
        "NORAD_CAT_ID": 38858,
        "ELEMENT_SET_NO": 999,
        "REV_AT_EPOCH": 7657,
        "BSTAR": 0,
        "MEAN_MOTION_DOT": -1.9e-07,
        "MEAN_MOTION_DDOT": 0
    },
    {
        "OBJECT_NAME": "GSAT0201 (GALILEO 5)",
        "OBJECT_ID": "2014-050A",
        "EPOCH": "2025-02-28T15:31:39.614592",
        "MEAN_MOTION": 1.85519637,
        "ECCENTRICITY": 0.1621143,
        "INCLINATION": 49.3877,
        "RA_OF_ASC_NODE": 292.7209,
        "ARG_OF_PERICENTER": 161.1013,
        "MEAN_ANOMALY": 205.7121,
        "EPHEMERIS_TYPE": 0,
        "CLASSIFICATION_TYPE": "U",
        "NORAD_CAT_ID": 40128,
        "ELEMENT_SET_NO": 999,
        "REV_AT_EPOCH": 6953,
        "BSTAR": 0,
        "MEAN_MOTION_DOT": -1.3e-07,
        "MEAN_MOTION_DDOT": 0
    },
    {
        "OBJECT_NAME": "GSAT0202 (GALILEO 6)",
        "OBJECT_ID": "2014-050B",
        "EPOCH": "2025-03-03T01:26:44.208960",
        "MEAN_MOTION": 1.85520325,
        "ECCENTRICITY": 0.162106,
        "INCLINATION": 49.4012,
        "RA_OF_ASC_NODE": 291.7033,
        "ARG_OF_PERICENTER": 161.975,
        "MEAN_ANOMALY": 204.5328,
        "EPHEMERIS_TYPE": 0,
        "CLASSIFICATION_TYPE": "U",
        "NORAD_CAT_ID": 40129,
        "ELEMENT_SET_NO": 999,
        "REV_AT_EPOCH": 7174,
        "BSTAR": 0,
        "MEAN_MOTION_DOT": -2.6e-07,
        "MEAN_MOTION_DDOT": 0
    },
    {
        "OBJECT_NAME": "GSAT0203 (GALILEO 7)",
        "OBJECT_ID": "2015-017A",
        "EPOCH": "2025-03-02T00:18:22.686048",
        "MEAN_MOTION": 1.70475386,
        "ECCENTRICITY": 0.0004661,
        "INCLINATION": 56.9059,
        "RA_OF_ASC_NODE": 354.4574,
        "ARG_OF_PERICENTER": 291.9904,
        "MEAN_ANOMALY": 67.9666,
        "EPHEMERIS_TYPE": 0,
        "CLASSIFICATION_TYPE": "U",
        "NORAD_CAT_ID": 40544,
        "ELEMENT_SET_NO": 999,
        "REV_AT_EPOCH": 6115,
        "BSTAR": 0,
        "MEAN_MOTION_DOT": -8.7e-07,
        "MEAN_MOTION_DDOT": 0
    },
    {
        "OBJECT_NAME": "GSAT0204 (GALILEO 8)",
        "OBJECT_ID": "2015-017B",
        "EPOCH": "2025-03-02T06:25:16.847904",
        "MEAN_MOTION": 1.70475279,
        "ECCENTRICITY": 0.0004226,
        "INCLINATION": 56.9122,
        "RA_OF_ASC_NODE": 354.467,
        "ARG_OF_PERICENTER": 281.5481,
        "MEAN_ANOMALY": 78.4114,
        "EPHEMERIS_TYPE": 0,
        "CLASSIFICATION_TYPE": "U",
        "NORAD_CAT_ID": 40545,
        "ELEMENT_SET_NO": 999,
        "REV_AT_EPOCH": 2420,
        "BSTAR": 0,
        "MEAN_MOTION_DOT": -8.7e-07,
        "MEAN_MOTION_DDOT": 0
    },
    {
        "OBJECT_NAME": "GSAT0205 (GALILEO 9)",
        "OBJECT_ID": "2015-045A",
        "EPOCH": "2025-02-26T12:23:46.457088",
        "MEAN_MOTION": 1.7047356,
        "ECCENTRICITY": 0.0006213,
        "INCLINATION": 55.1114,
        "RA_OF_ASC_NODE": 234.7412,
        "ARG_OF_PERICENTER": 47.9432,
        "MEAN_ANOMALY": 312.0913,
        "EPHEMERIS_TYPE": 0,
        "CLASSIFICATION_TYPE": "U",
        "NORAD_CAT_ID": 40889,
        "ELEMENT_SET_NO": 999,
        "REV_AT_EPOCH": 5890,
        "BSTAR": 0,
        "MEAN_MOTION_DOT": 6.6e-07,
        "MEAN_MOTION_DDOT": 0
    },
    {
        "OBJECT_NAME": "GSAT0206 (GALILEO 10)",
        "OBJECT_ID": "2015-045B",
        "EPOCH": "2025-03-02T06:09:30.009312",
        "MEAN_MOTION": 1.70473511,
        "ECCENTRICITY": 0.000394,
        "INCLINATION": 55.1092,
        "RA_OF_ASC_NODE": 234.6329,
        "ARG_OF_PERICENTER": 50.8725,
        "MEAN_ANOMALY": 309.1223,
        "EPHEMERIS_TYPE": 0,
        "CLASSIFICATION_TYPE": "U",
        "NORAD_CAT_ID": 40890,
        "ELEMENT_SET_NO": 999,
        "REV_AT_EPOCH": 5899,
        "BSTAR": 0,
        "MEAN_MOTION_DOT": 4.8e-07,
        "MEAN_MOTION_DDOT": 0
    },
    {
        "OBJECT_NAME": "GSAT0209 (GALILEO 12)",
        "OBJECT_ID": "2015-079A",
        "EPOCH": "2025-03-01T20:07:58.323936",
        "MEAN_MOTION": 1.70474744,
        "ECCENTRICITY": 0.0004496,
        "INCLINATION": 55.5487,
        "RA_OF_ASC_NODE": 114.232,
        "ARG_OF_PERICENTER": 312.6408,
        "MEAN_ANOMALY": 47.4132,
        "EPHEMERIS_TYPE": 0,
        "CLASSIFICATION_TYPE": "U",
        "NORAD_CAT_ID": 41174,
        "ELEMENT_SET_NO": 999,
        "REV_AT_EPOCH": 5672,
        "BSTAR": 0,
        "MEAN_MOTION_DOT": 2.7e-07,
        "MEAN_MOTION_DDOT": 0
    },
    {
        "OBJECT_NAME": "GSAT0208 (GALILEO 11)",
        "OBJECT_ID": "2015-079B",
        "EPOCH": "2025-03-03T05:34:01.290432",
        "MEAN_MOTION": 1.70474478,
        "ECCENTRICITY": 0.0003956,
        "INCLINATION": 55.5479,
        "RA_OF_ASC_NODE": 114.1911,
        "ARG_OF_PERICENTER": 310.9198,
        "MEAN_ANOMALY": 49.1306,
        "EPHEMERIS_TYPE": 0,
        "CLASSIFICATION_TYPE": "U",
        "NORAD_CAT_ID": 41175,
        "ELEMENT_SET_NO": 999,
        "REV_AT_EPOCH": 5716,
        "BSTAR": 0,
        "MEAN_MOTION_DOT": 1.8e-07,
        "MEAN_MOTION_DDOT": 0
    },
    {
        "OBJECT_NAME": "GSAT0211 (GALILEO 14)",
        "OBJECT_ID": "2016-030A",
        "EPOCH": "2025-03-01T00:13:13.687680",
        "MEAN_MOTION": 1.70473594,
        "ECCENTRICITY": 0.0003585,
        "INCLINATION": 55.2585,
        "RA_OF_ASC_NODE": 234.7065,
        "ARG_OF_PERICENTER": 25.6327,
        "MEAN_ANOMALY": 334.349,
        "EPHEMERIS_TYPE": 0,
        "CLASSIFICATION_TYPE": "U",
        "NORAD_CAT_ID": 41549,
        "ELEMENT_SET_NO": 999,
        "REV_AT_EPOCH": 5460,
        "BSTAR": 0,
        "MEAN_MOTION_DOT": 5.1e-07,
        "MEAN_MOTION_DDOT": 0
    }
]