38858,GSAT0104 (GALILEO-FM4),2012,874.89,700.0,-,55.53,Inactive,1,MEO,French Guiana,ESA,Commercial,Navigation (Global or Regional Positioning),Soyuz,1 38858U 12055B   25042.54689446 -.00000019  00000+0  00000+0 0  9993,2 38858  55.5308 115.6831 0000761 269.5264  90.5214  1.64591971 76572,1.64591971,7.61e-05,MEO
37846,GSAT0101 (GALILEO-PFM),2011,844.7,700.0,+,57.11,Active,1,MEO,French Guiana,ESA,Commercial,Navigation (Global or Regional Positioning),Soyuz,1 37846U 11060A   25060.06079426 -.00000084  00000+0  00000+0 0  9994,2 37846  57.1140 354.5841 0004142 343.0067  16.9840  1.70475553 83053,1.70475553,0.0004142,MEO
37847,GSAT0102 (GALILEO-FM2),2011,844.7,700.0,+,57.11,Active,1,MEO,French Guiana,ESA,Commercial,Navigation (Global or Regional Positioning),Soyuz,1 37847U 11060B   25062.52667051 -.00000092  00000+0  00000+0 0  9994,2 37847  57.1119 354.5177 0005351 337.7414 140.9033  1.70475674 83103,1.70475674,0.0005351,MEO
38857,GSAT0103 (GALILEO-FM3),2012,844.71,700.0,+,55.53,Active,1,MEO,French Guiana,ESA,Commercial,Navigation (Global or Regional Positioning),Soyuz,1 38857U 12055A   25062.44687772  .00000017  00000+0  00000+0 0  9990,2 38857  55.5298 114.4762 0005615 273.8533  86.1656  1.70473407 77122,1.70473407,0.0005615,MEO
40128,GSAT0201 (GALILEO 5),2014,776.2,733.0,B,49.39,Active,1,MEO,French Guiana,ESA,Commercial,Navigation (Global or Regional Positioning),Soyuz,1 40128U 14050A   25059.64698628 -.00000013  00000+0  00000+0 0  9998,2 40128  49.3877 292.7209 1621143 161.1013 205.7121  1.85519637 69533,1.85519637,0.1621143,MEO
40129,GSAT0202 (GALILEO 6),2014,776.2,733.0,B,49.4,Active,1,MEO,French Guiana,ESA,Commercial,Navigation (Global or Regional Positioning),Soyuz,1 40129U 14050B   25062.06023390 -.00000026  00000+0  00000+0 0  9991,2 40129  49.4012 291.7033 1621060 161.9750 204.5328  1.85520325 71742,1.85520325,0.162106,MEO
40544,GSAT0203 (GALILEO 7),2015,844.7,723.0,+,56.91,Active,1,MEO,French Guiana,ESA,Commercial,Navigation (Global or Regional Positioning),Soyuz,1 40544U 15017A   25061.01276257 -.00000087  00000+0  00000+0 0  9999,2 40544  56.9059 354.4574 0004661 291.9904  67.9666  1.70475386 61150,1.70475386,0.0004661,MEO
40545,GSAT0204 (GALILEO 8),2015,844.7,723.0,B,56.91,Active,1,MEO,French Guiana,ESA,Commercial,Navigation (Global or Regional Positioning),Soyuz,1 40545U 15017B   25061.26755611 -.00000087  00000+0  00000+0 0  9993,2 40545  56.9122 354.4670 0004226 281.5481  78.4114  1.70475279 24202,1.70475279,0.0004226,MEO
40889,GSAT0205 (GALILEO 9),2015,844.71,723.0,+,55.11,Active,1,MEO,French Guiana,ESA,Commercial,Navigation (Global or Regional Positioning),Soyuz,1 40889U 15045A   25057.51650992  .00000066  00000+0  00000+0 0  9990,2 40889  55.1114 234.7412 0006213  47.9432 312.0913  1.70473560 58906,1.7047356,0.0006213,MEO
40890,GSAT0206 (GALILEO 10),2015,844.71,723.0,+,55.11,Active,1,MEO,French Guiana,ESA,Commercial,Navigation (Global or Regional Positioning),Soyuz,1 40890U 15045B   25061.25659733  .00000048  00000+0  00000+0 0  9990,2 40890  55.1092 234.6329 0003940  50.8725 309.1223  1.70473511 58997,1.70473511,0.000394,MEO
41174,GSAT0209 (GALILEO 12),2015,844.7,723.0,+,55.55,Active,1,MEO,French Guiana,ESA,Commercial,Navigation (Global or Regional Positioning),Soyuz,1 41174U 15079A   25060.83886949  .00000027  00000+0  00000+0 0  9994,2 41174  55.5487 114.2320 0004496 312.6408  47.4132  1.70474744 56722,1.70474744,0.0004496,MEO
41175,GSAT0208 (GALILEO 11),2015,844.7,723.0,+,55.55,Active,1,MEO,French Guiana,ESA,Commercial,Navigation (Global or Regional Positioning),Soyuz,1 41175U 15079B   25062.23195938  .00000018  00000+0  00000+0 0  9992,2 41175  55.5479 114.1911 0003956 310.9198  49.1306  1.70474478 57161,1.70474478,0.0003956,MEO
41549,GSAT0211 (GALILEO 14),2016,844.71,723.0,+,55.26,Active,1,MEO,French Guiana,ESA,Commercial,Navigation (Global or Regional Positioning),Soyuz,1 41549U 16030A   25060.00918620  .00000051  00000+0  00000+0 0  9996,2 41549  55.2585 234.7065 0003585  25.6327 334.3490  1.70473594 54609,1.70473594,0.0003585,MEO
